STARLINK-35805          
1 66359U 25254M   25327.50002315 -.00094870  00000+0 -64971-3 0  9991
2 66359  53.1587  10.4124 0001136  93.8511 202.2273 15.74226249  3801
STARLINK-35823          
1 66360U 25254N   25327.50002315 -.00111102  00000+0 -76289-3 0  9996
2 66360  53.1586  10.4038 0001096  91.5951 208.3180 15.74232143  3831
STARLINK-35813          
1 66361U 25254P   25327.50002315 -.00092405  00000+0 -63281-3 0  9999
2 66361  53.1588  10.4084 0001144 101.9647 196.0356 15.74216187  3835
STARLINK-35822          
1 66362U 25254Q   25327.50002315 -.00105262  00000+0 -72231-3 0  9991
2 66362  53.1587  10.3963 0001092  73.1578 230.5910 15.74224032  3833
STARLINK-35806          
1 66363U 25254R   25327.50002315 -.00108268  00000+0 -74328-3 0  9990
2 66363  53.1587  10.4000 0001231  95.1190 206.7108 15.74225246  3805
STARLINK-35797          
1 66364U 25254S   25327.50002315 -.00126643  00000+0 -87169-3 0  9995
2 66364  53.1587  10.3916 0001089  75.4818 230.1784 15.74235263  3834
STARLINK-35827          
1 66365U 25254T   25327.50002315 -.00096849  00000+0 -66367-3 0  9997
2 66365  53.1586  10.3844 0001116  96.7168 212.7831 15.74220749  3808
STARLINK-35845          
1 66366U 25254U   25327.50002315 -.00067565  00000+0 -46020-3 0  9995
2 66366  53.1587  10.3875 0001090  85.4486 222.1296 15.74215173  3831
STARLINK-35846          
1 66367U 25254V   25327.50002315  .00004654  00000+0  36073-4 0  9992
2 66367  53.1586  10.3799 0001284 101.9814 209.4416 15.74176197  3788
STARLINK-34861          
1 66368U 25254W   25327.50002315 -.00100639  00000+0 -68993-3 0  9990
2 66368  53.1583  10.3709 0001264  92.4069 222.8413 15.74226713  3888
STARLINK-35795          
1 66369U 25254X   25327.50002315 -.00116414  00000+0 -80028-3 0  9992
2 66369  53.1585  10.3752 0001145  69.4446 243.8833 15.74226141  3783
STARLINK-35824          
1 66370U 25254Y   25327.50002315 -.00222259  00000+0 -15447-2 0  9991
2 66370  53.1584  10.3675 0001106  89.2068 227.8801 15.74320584  3801
